{
    "links": {
        "self": "http://www.neowsapp.com/rest/v1/neo/3753094?api_key=iIulBulltgU6a56xZRHN4H3l9WmuAYTsLGpBGhQ2"
    },
    "id": "3753094",
    "neo_reference_id": "3753094",
    "name": "(2016 JL24)",
    "designation": "2016 JL24",
    "nasa_jpl_url": "http://ssd.jpl.nasa.gov/sbdb.cgi?sstr=3753094",
    "absolute_magnitude_h": 22.4,
    "estimated_diameter": {
        "kilometers": {
            "estimated_diameter_min": 0.0880146521,
            "estimated_diameter_max": 0.1968067451
        },
        "meters": {
            "estimated_diameter_min": 88.0146520901,
            "estimated_diameter_max": 196.8067450894
        },
        "miles": {
            "estimated_diameter_min": 0.0546897524,
            "estimated_diameter_max": 0.122290004
        },
        "feet": {
            "estimated_diameter_min": 288.7619911632,
            "estimated_diameter_max": 645.6914415591
        }
    },
    "is_potentially_hazardous_asteroid": false,
    "close_approach_data": [
        {
            "close_approach_date": "1985-05-11",
            "close_approach_date_full": "1985-May-11 09:44",
            "epoch_date_close_approach": 484652640000,
            "relative_velocity": {
                "kilometers_per_second": "15.0846833069",
                "kilometers_per_hour": "54304.8599049901",
                "miles_per_hour": "33742.9280892979"
            },
            "miss_distance": {
                "astronomical": "0.3032216727",
                "lunar": "117.9532306803",
                "kilometers": "45361316.373757149",
                "miles": "28186214.9824966962"
            },
            "orbiting_body": "Earth"
        },
        {
            "close_approach_date": "1997-05-10",
            "close_approach_date_full": "1997-May-10 10:56",
            "epoch_date_close_approach": 863261760000,
            "relative_velocity": {
                "kilometers_per_second": "18.9613306024",
                "kilometers_per_hour": "68260.7901687174",
                "miles_per_hour": "42414.6004245567"
            },
            "miss_distance": {
                "astronomical": "0.4473496029",
                "lunar": "174.0189955281",
                "kilometers": "66922547.739185823",
                "miles": "41583742.9013494374"
            },
            "orbiting_body": "Earth"
        },
        {
            "close_approach_date": "2016-05-11",
            "close_approach_date_full": "2016-May-11 14:12",
            "epoch_date_close_approach": 1462975920000,
            "relative_velocity": {
                "kilometers_per_second": "15.3312943903",
                "kilometers_per_hour": "55192.659804976",
                "miles_per_hour": "34294.5724215974"
            },
            "miss_distance": {
                "astronomical": "0.2823839085",
                "lunar": "109.8473404065",
                "kilometers": "42244031.233874895",
                "miles": "26249223.816047751"
            },
            "orbiting_body": "Earth"
        },
        {
            "close_approach_date": "2047-05-12",
            "close_approach_date_full": "2047-May-12 15:01",
            "epoch_date_close_approach": 2441286060000,
            "relative_velocity": {
                "kilometers_per_second": "15.6487675657",
                "kilometers_per_hour": "56335.5632363537",
                "miles_per_hour": "35004.728167611"
            },
            "miss_distance": {
                "astronomical": "0.2772922825",
                "lunar": "107.8666978925",
                "kilometers": "41482334.829438275",
                "miles": "25775927.617367195"
            },
            "orbiting_body": "Earth"
        }
    ],
    "orbital_data": {
        "orbit_id": "9",
        "orbit_determination_date": "2017-04-06 08:25:58",
        "first_observation_date": "2016-05-07",
        "last_observation_date": "2016-06-06",
        "data_arc_in_days": 30,
        "observations_used": 42,
        "orbit_uncertainty": "7",
        "minimum_orbit_intersection": ".277142",
        "jupiter_tisserand_invariant": "3.882",
        "epoch_osculation": "2459000.5",
        "eccentricity": ".3181685046557778",
        "semi_major_axis": "1.784501286370671",
        "inclination": "29.50657320042096",
        "ascending_node_longitude": "222.7336081411412",
        "orbital_period": "870.7103861323828",
        "perihelion_distance": "1.216729180529803",
        "perihelion_argument": "44.30331925706717",
        "aphelion_distance": "2.35227339221154",
        "perihelion_time": "2459307.446644040277",
        "mean_anomaly": "233.0912211288368",
        "mean_motion": ".413455502235465",
        "equinox": "J2000",
        "orbit_class": {
            "orbit_class_type": "AMO",
            "orbit_class_description": "Near-Earth asteroid orbits similar to that of 1221 Amor",
            "orbit_class_range": "1.017 AU < q (perihelion) < 1.3 AU"
        }
    },
    "is_sentry_object": false
}